<?xml version="1.0" encoding="utf-8"?>
<kml xmlns="http://www.opengis.net/kml/2.2">
  <Document>
    <name>Sample Towers</name>
    <Placemark>
      <name>North Tower</name>
      <Point>
        <coordinates>-97.7431,30.2672,120</coordinates>
      </Point>
    </Placemark>
    <Placemark>
      <name>East Relay</name>
      <Point>
        <coordinates>-97.7350,30.2700,95</coordinates>
      </Point>
    </Placemark>
    <Placemark>
      <name>South Site</name>
      <Point>
        <coordinates>-97.7450,30.2600,110</coordinates>
      </Point>
    </Placemark>
    <Folder>
      <name>Remote</name>
      <Placemark>
        <name>West Hill Tower</name>
        <Point>
          <coordinates>-97.7600,30.2750,140</coordinates>
        </Point>
      </Placemark>
    </Folder>
  </Document>
</kml>
